start=new Date('2022-06-17T00:00:00.000Z').valueOf();
sats=[{"DECAY_DATE":null,"ELEMENT_SET_NO":"999","LAUNCH_DATE":"2021-09-14","TIME_SYSTEM":"UTC","TLE_LINE1":"1 49145U 21082R   22167.02823036 -.00001021  00000-0 -81178-4 0  9993","OBJECT_NAME":"STARLINK-3119","CLASSIFICATION_TYPE":"U","SEMIMAJOR_AXIS":"6955.200","CENTER_NAME":"EARTH","INCLINATION":"69.9962","RA_OF_ASC_NODE":"89.5112","MEAN_MOTION_DOT":"-0.00001021","REV_AT_EPOCH":"4286","RCS_SIZE":"LARGE","SITE":"AFWTR","TLE_LINE2":"2 49145  69.9962  89.5112 0002996 267.1221  92.9595 14.96712336 42860","MEAN_MOTION_DDOT":"0.0000000000000","ECCENTRICITY":"0.00029960","OBJECT_ID":"2021-082R","PERIAPSIS":"574.981","GP_ID":"206290325","REF_FRAME":"TEME","OBJECT_TYPE":"PAYLOAD","EPHEMERIS_TYPE":"0","NORAD_CAT_ID":"49145","MEAN_ANOMALY":"92.9595","MEAN_ELEMENT_THEORY":"SGP4","ARG_OF_PERICENTER":"267.1221","COUNTRY_CODE":"US","FILE":"3497002","APOAPSIS":"579.149","EPOCH":"2022-06-16T00:40:39.103104","PERIOD":"96.211","BSTAR":"-0.00008117800000","MEAN_MOTION":"14.96712336"},{"COUNTRY_CODE":"US","FILE":"3497002","APOAPSIS":"579.175","EPOCH":"2022-06-16T00:31:43.836096","PERIOD":"96.211","BSTAR":"-0.00000526070000","MEAN_MOTION":"14.96712609","TLE_LINE2":"2 49146  69.9992 109.7614 0003035 274.0557  86.0254 14.96712609 43523","MEAN_MOTION_DDOT":"0.0000000000000","ECCENTRICITY":"0.00030350","OBJECT_ID":"2021-082S","PERIAPSIS":"574.953","GP_ID":"206289080","REF_FRAME":"TEME","OBJECT_TYPE":"PAYLOAD","EPHEMERIS_TYPE":"0","NORAD_CAT_ID":"49146","ARG_OF_PERICENTER":"274.0557","MEAN_ANOMALY":"86.0254","MEAN_ELEMENT_THEORY":"SGP4","INCLINATION":"69.9992","RA_OF_ASC_NODE":"109.7614","MEAN_MOTION_DOT":"-0.00000152","REV_AT_EPOCH":"4352","RCS_SIZE":"LARGE","SITE":"AFWTR","DECAY_DATE":null,"ELEMENT_SET_NO":"999","LAUNCH_DATE":"2021-09-14","TIME_SYSTEM":"UTC","TLE_LINE1":"1 49146U 21082S   22167.02203514 -.00000152  00000-0 -52607-5 0  9997","OBJECT_NAME":"STARLINK-3116","CLASSIFICATION_TYPE":"U","SEMIMAJOR_AXIS":"6955.199","CENTER_NAME":"EARTH"},{"TIME_SYSTEM":"UTC","LAUNCH_DATE":"2021-09-14","TLE_LINE1":"1 49147U 21082T   22167.03599032 -.00000508  00000-0 -36366-4 0  9990","ELEMENT_SET_NO":"999","DECAY_DATE":null,"SEMIMAJOR_AXIS":"6955.173","CENTER_NAME":"EARTH","OBJECT_NAME":"STARLINK-3071","CLASSIFICATION_TYPE":"U","MEAN_MOTION_DOT":"-0.00000508","REV_AT_EPOCH":"4287","INCLINATION":"70.0005","RA_OF_ASC_NODE":"89.4637","SITE":"AFWTR","RCS_SIZE":"LARGE","MEAN_MOTION_DDOT":"0.0000000000000","ECCENTRICITY":"0.00030990","TLE_LINE2":"2 49147  70.0005  89.4637 0003099 272.7392  87.3411 14.96720943 42879","NORAD_CAT_ID":"49147","EPHEMERIS_TYPE":"0","MEAN_ANOMALY":"87.3411","MEAN_ELEMENT_THEORY":"SGP4","ARG_OF_PERICENTER":"272.7392","GP_ID":"206289830","PERIAPSIS":"574.883","OBJECT_ID":"2021-082T","OBJECT_TYPE":"PAYLOAD","REF_FRAME":"TEME","PERIOD":"96.210","EPOCH":"2022-06-16T00:51:49.563648","BSTAR":"-0.00003636600000","FILE":"3497002","APOAPSIS":"579.194","COUNTRY_CODE":"US","MEAN_MOTION":"14.96720943"},{"OBJECT_NAME":"STARLINK-3048","CLASSIFICATION_TYPE":"U","SEMIMAJOR_AXIS":"6955.195","CENTER_NAME":"EARTH","ELEMENT_SET_NO":"999","DECAY_DATE":null,"TIME_SYSTEM":"UTC","LAUNCH_DATE":"2021-09-14","TLE_LINE1":"1 49148U 21082U   22167.01718126 -.00001221  00000-0 -98690-4 0  9997","RCS_SIZE":"LARGE","SITE":"AFWTR","INCLINATION":"69.9984","RA_OF_ASC_NODE":"109.7725","MEAN_MOTION_DOT":"-0.00001221","REV_AT_EPOCH":"4236","GP_ID":"206290078","OBJECT_ID":"2021-082U","PERIAPSIS":"574.854","OBJECT_TYPE":"PAYLOAD","REF_FRAME":"TEME","NORAD_CAT_ID":"49148","EPHEMERIS_TYPE":"0","MEAN_ANOMALY":"90.8131","ARG_OF_PERICENTER":"269.2664","MEAN_ELEMENT_THEORY":"SGP4","TLE_LINE2":"2 49148  69.9984 109.7725 0003172 269.2664  90.8131 14.96713973 42369","MEAN_MOTION_DDOT":"0.0000000000000","ECCENTRICITY":"0.00031720","MEAN_MOTION":"14.96713973","APOAPSIS":"579.266","FILE":"3497002","COUNTRY_CODE":"US","PERIOD":"96.211","EPOCH":"2022-06-16T00:24:44.460864","BSTAR":"-0.00009869000000"},{"REF_FRAME":"TEME","OBJECT_TYPE":"PAYLOAD","PERIAPSIS":"569.829","OBJECT_ID":"2021-082V","GP_ID":"206290826","ARG_OF_PERICENTER":"274.6435","MEAN_ANOMALY":"85.4362","MEAN_ELEMENT_THEORY":"SGP4","EPHEMERIS_TYPE":"0","NORAD_CAT_ID":"49149","TLE_LINE2":"2 49149  69.9998 130.2837 0003173 274.6435  85.4362 14.98337509 43057","ECCENTRICITY":"0.00031730","MEAN_MOTION_DDOT":"0.0000000000000","MEAN_MOTION":"14.98337509","COUNTRY_CODE":"US","FILE":"3497002","APOAPSIS":"574.240","BSTAR":"0.00001550000000","EPOCH":"2022-06-15T23:50:24.140544","PERIOD":"96.107","CLASSIFICATION_TYPE":"U","OBJECT_NAME":"STARLINK-3053","CENTER_NAME":"EARTH","SEMIMAJOR_AXIS":"6950.170","DECAY_DATE":null,"ELEMENT_SET_NO":"999","TLE_LINE1":"1 49149U 21082V   22166.99333496  .00000092  00000-0  15500-4 0  9999","TIME_SYSTEM":"UTC","LAUNCH_DATE":"2021-09-14","RCS_SIZE":"LARGE","SITE":"AFWTR","RA_OF_ASC_NODE":"130.2837","INCLINATION":"69.9998","MEAN_MOTION_DOT":"0.00000092","REV_AT_EPOCH":"4305"},{"OBJECT_TYPE":"PAYLOAD","REF_FRAME":"TEME","GP_ID":"206289581","PERIAPSIS":"569.776","OBJECT_ID":"2021-082W","MEAN_ANOMALY":"85.3157","MEAN_ELEMENT_THEORY":"SGP4","ARG_OF_PERICENTER":"274.7627","NORAD_CAT_ID":"49150","EPHEMERIS_TYPE":"0","TLE_LINE2":"2 49150  69.9994 130.2995 0003278 274.7627  85.3157 14.98331047 43052","ECCENTRICITY":"0.00032780","MEAN_MOTION_DDOT":"0.0000000000000","MEAN_MOTION":"14.98331047","FILE":"3497002","APOAPSIS":"574.333","COUNTRY_CODE":"US","BSTAR":"0.00001807700000","PERIOD":"96.107","EPOCH":"2022-06-15T23:43:33.312864","CLASSIFICATION_TYPE":"U","OBJECT_NAME":"STARLINK-3104","CENTER_NAME":"EARTH","SEMIMAJOR_AXIS":"6950.190","ELEMENT_SET_NO":"999","DECAY_DATE":null,"TLE_LINE1":"1 49150U 21082W   22166.98858001  .00000123  00000-0  18077-4 0  9991","TIME_SYSTEM":"UTC","LAUNCH_DATE":"2021-09-14","RCS_SIZE":"LARGE","SITE":"AFWTR","RA_OF_ASC_NODE":"130.2995","INCLINATION":"69.9994","MEAN_MOTION_DOT":"0.00000123","REV_AT_EPOCH":"4305"},{"FILE":"3497002","APOAPSIS":"579.055","COUNTRY_CODE":"US","PERIOD":"96.211","EPOCH":"2022-06-16T00:26:34.947456","BSTAR":"-0.00003892900000","MEAN_MOTION":"14.96717987","TLE_LINE2":"2 49151  69.9980  89.5345 0002887 274.1150  85.9679 14.96717987 44069","MEAN_MOTION_DDOT":"0.0000000000000","ECCENTRICITY":"0.00028870","GP_ID":"206289330","PERIAPSIS":"575.039","OBJECT_ID":"2021-082X","OBJECT_TYPE":"PAYLOAD","REF_FRAME":"TEME","NORAD_CAT_ID":"49151","EPHEMERIS_TYPE":"0","MEAN_ANOMALY":"85.9679","ARG_OF_PERICENTER":"274.1150","MEAN_ELEMENT_THEORY":"SGP4","INCLINATION":"69.9980","RA_OF_ASC_NODE":"89.5345","MEAN_MOTION_DOT":"-0.00000537","REV_AT_EPOCH":"4406","RCS_SIZE":"LARGE","SITE":"AFWTR","ELEMENT_SET_NO":"999","DECAY_DATE":null,"TIME_SYSTEM":"UTC","LAUNCH_DATE":"2021-09-14","TLE_LINE1":"1 49151U 21082X   22167.01846004 -.00000537  00000-0 -38929-4 0  9996","OBJECT_NAME":"STARLINK-3102","CLASSIFICATION_TYPE":"U","SEMIMAJOR_AXIS":"6955.182","CENTER_NAME":"EARTH"},{"SITE":"AFWTR","RCS_SIZE":"LARGE","REV_AT_EPOCH":"4399","MEAN_MOTION_DOT":"-0.00000851","INCLINATION":"69.9986","RA_OF_ASC_NODE":"89.4049","SEMIMAJOR_AXIS":"6955.150","CENTER_NAME":"EARTH","OBJECT_NAME":"STARLINK-3081","CLASSIFICATION_TYPE":"U","LAUNCH_DATE":"2021-09-14","TIME_SYSTEM":"UTC","TLE_LINE1":"1 49152U 21082Y   22167.06025611 -.00000851  00000-0 -66351-4 0  9994","DECAY_DATE":null,"ELEMENT_SET_NO":"999","MEAN_MOTION":"14.96728395","EPOCH":"2022-06-16T01:26:46.127904","PERIOD":"96.210","BSTAR":"-0.00006635100000","COUNTRY_CODE":"US","APOAPSIS":"579.266","FILE":"3497002","EPHEMERIS_TYPE":"0","NORAD_CAT_ID":"49152","MEAN_ELEMENT_THEORY":"SGP4","MEAN_ANOMALY":"88.6428","ARG_OF_PERICENTER":"271.4360","OBJECT_ID":"2021-082Y","PERIAPSIS":"574.764","GP_ID":"206290579","REF_FRAME":"TEME","OBJECT_TYPE":"PAYLOAD","MEAN_MOTION_DDOT":"0.0000000000000","ECCENTRICITY":"0.00032360","TLE_LINE2":"2 49152  69.9986  89.4049 0003236 271.4360  88.6428 14.96728395 43996"},{"CENTER_NAME":"EARTH","SEMIMAJOR_AXIS":"6955.173","CLASSIFICATION_TYPE":"U","OBJECT_NAME":"STARLINK-3072","TLE_LINE1":"1 49153U 21082Z   22167.00869337 -.00001063  00000-0 -84897-4 0  9991","LAUNCH_DATE":"2021-09-14","TIME_SYSTEM":"UTC","ELEMENT_SET_NO":"999","DECAY_DATE":null,"SITE":"AFWTR","RCS_SIZE":"LARGE","REV_AT_EPOCH":"4407","MEAN_MOTION_DOT":"-0.00001063","RA_OF_ASC_NODE":"89.5592","INCLINATION":"69.9992","MEAN_ANOMALY":"82.6462","ARG_OF_PERICENTER":"277.4364","MEAN_ELEMENT_THEORY":"SGP4","NORAD_CAT_ID":"49153","EPHEMERIS_TYPE":"0","OBJECT_TYPE":"PAYLOAD","REF_FRAME":"TEME","GP_ID":"206290326","PERIAPSIS":"575.001","OBJECT_ID":"2021-082Z","ECCENTRICITY":"0.00029290","MEAN_MOTION_DDOT":"0.0000000000000","TLE_LINE2":"2 49153  69.9992  89.5592 0002929 277.4364  82.6462 14.96720940 44076","MEAN_MOTION":"14.96720940","BSTAR":"-0.00008489700000","PERIOD":"96.210","EPOCH":"2022-06-16T00:12:31.107168","FILE":"3497002","APOAPSIS":"579.075","COUNTRY_CODE":"US"},{"ELEMENT_SET_NO":"999","DECAY_DATE":null,"TLE_LINE1":"1 49154U 21082AA  22167.01233906  .00000744  00000-0  72955-4 0  9995","TIME_SYSTEM":"UTC","LAUNCH_DATE":"2021-09-14","CLASSIFICATION_TYPE":"U","OBJECT_NAME":"STARLINK-3068","CENTER_NAME":"EARTH","SEMIMAJOR_AXIS":"6955.161","RA_OF_ASC_NODE":"109.7836","INCLINATION":"69.9977","MEAN_MOTION_DOT":"0.00000744","REV_AT_EPOCH":"4344","RCS_SIZE":"LARGE","SITE":"AFWTR","TLE_LINE2":"2 49154  69.9977 109.7836 0003062 271.0822  88.9986 14.96724944 43442","ECCENTRICITY":"0.00030620","MEAN_MOTION_DDOT":"0.0000000000000","OBJECT_TYPE":"PAYLOAD","REF_FRAME":"TEME","GP_ID":"206289081","PERIAPSIS":"574.896","OBJECT_ID":"2021-082AA","ARG_OF_PERICENTER":"271.0822","MEAN_ANOMALY":"88.9986","MEAN_ELEMENT_THEORY":"SGP4","NORAD_CAT_ID":"49154","EPHEMERIS_TYPE":"0","FILE":"3497002","APOAPSIS":"579.155","COUNTRY_CODE":"US","BSTAR":"0.00007295500000","PERIOD":"96.210","EPOCH":"2022-06-16T00:17:46.094784","MEAN_MOTION":"14.96724944"}];
